#,id,address,microdistrict_id,house,building_body,phone,email,photo,photo_url,linestring,marker,multipolygon,description,created_at,updated_at,is_deleted,is_disabled,category_id,district_id,street_id,sub_category_id,work_hours,name_kz,name_ru,form_of_ownership_category_id,form_of_ownership_sub_category_id,latitude,longitude
1,641612,"ул.Курмангазы, 145",,,,,,,,,0101000020E6100000A7608CEBC03A53401B3A3C0FF39E4540,,Требуется капитальный ремонт,2024-03-26 07:05:48.797546 +00:00,2024-06-13 09:34:16.403538 +00:00,,,4,2,,21,,сквер возле театра им. М. Ауэзова ,сквер возле театра им. М. Ауэзова ,,,43.24179258766909,76.91802490910287
2,641634,"ул.Пушкина, 25",,,,,,,,,0101000020E6100000F1E7250CF53C5340F781168122A24540,,Требуется текущий ремонт,2024-03-26 07:05:48.797546 +00:00,2024-06-13 09:34:16.403538 +00:00,,,4,6,,21,,бульвар по ул.Пушкина ,бульвар по ул.Пушкина ,,,43.266677986135555,76.95245650960693
3,641613,"пр.Абылай хана, 97",,,,,,,,,0101000020E610000045B1B8EC5C3C53403DDCA081B8A04540,,Не требуется ремонт,2024-03-26 07:05:48.797546 +00:00,2024-06-13 09:34:16.403538 +00:00,,,4,2,,21,,сквер возле КБТУ,сквер возле КБТУ,,,43.25563068727977,76.94317167316792
4,641601,"пр.Абылай хана, 91",,,,,,,,,0101000020E61000001ED890AE583C5340CF7C86B7EFA04540,,Не требуется ремонт,2024-03-26 07:05:48.797546 +00:00,2024-06-13 09:34:16.403538 +00:00,,,4,2,,21,,сквер «Северный» ,сквер «Северный» ,,,43.2573155790975,76.94291271347944
5,641578,"ул.Байсеитовой, 11/13",,,,,,,,,0101000020E610000049D6EEF7723C534076A9482D559F4540,,Не требуется ремонт,2024-03-26 07:05:48.797546 +00:00,2024-06-13 09:34:16.403538 +00:00,,,4,2,,21,,зеленая зона по ул. Байсейтовой,зеленая зона по ул. Байсейтовой,,,43.244786892394515,76.94451711963588
6,641611,"ул.Муканова, 152",,,,,,,,,0101000020E6100000714B1639963A534037323C173EA04540,,Требуется капитальный ремонт,2024-03-26 07:05:48.797546 +00:00,2024-06-13 09:34:16.403538 +00:00,,,4,2,,21,,сквер им. С.Муканова  ,сквер им. С.Муканова  ,,,43.25189485968843,76.91541888406006
7,641615,"ул.Байтурсынулы, 58",,,,,,,,,0101000020E61000008AD71CED5B3B53401ADDD4C6AC9F4540,,Не требуется ремонт,2024-03-26 07:05:48.797546 +00:00,2024-06-13 09:34:16.403538 +00:00,,,4,2,,21,,сквер им.  А. Байтурсынова ,сквер им.  А. Байтурсынова ,,,43.247460225999205,76.92748573128316
8,641647,"мкр.Самал-1, 31",143,,,,,,,,0101000020E6100000D5443E84FE3C5340069D48460A9E4540,,Не требуется ремонт,2024-03-26 07:05:48.797546 +00:00,2024-06-13 09:34:16.403538 +00:00,,,4,6,,21,,сквер ул. Мендикулова ниже ул. Жолдасбекова,сквер ул. Мендикулова ниже ул. Жолдасбекова,,,43.234688554244755,76.95303445893235
9,641662,"мкр.Самал-1, 24",143,,,,,,,,0101000020E6100000509B9FE0053D53400A7FEF15FB9D4540,,Не требуется ремонт,2024-03-26 07:05:48.797546 +00:00,2024-06-13 09:34:16.403538 +00:00,,,4,6,,21,,благоустроенный участок по ул. Жолдасбекова от пр. Достык до ул. Фурманова,благоустроенный участок по ул. Жолдасбекова от пр. Достык до ул. Фурманова,,,43.234225027028586,76.95348373018828
10,641650,"мкр.Самал-1, 35",143,,,,,,,,0101000020E610000003558BA3DE3C53408786A2FE149E4540,,Не требуется ремонт,2024-03-26 07:05:48.797546 +00:00,2024-06-13 09:34:16.403538 +00:00,,,4,6,,21,,"Зеленая зона вдоль проезда Гос.музея от ул.Фурманова до ул.Мендикулова, включая проезжую часть","Зеленая зона вдоль проезда Гос.музея от ул.Фурманова до ул.Мендикулова, включая проезжую часть",,,43.23501570640388,76.951088796679
11,641669,"мкр.Самал-1, 13",143,,,,,,,,0101000020E610000049BC74DF2D3D5340A40004AC329E4540,,Требуется текущий ремонт,2024-03-26 07:05:48.797546 +00:00,2024-06-13 09:34:16.403538 +00:00,,,4,6,,21,,сквер.мкр.Самал -1,сквер.мкр.Самал -1,,,43.23592138476786,76.95592485809279
12,641527,"мкр.Саялы, 48",147,,,,,,,,0101000020E6100000A0821689DB3553403A7B74E830A74540,,Не требуется ремонт,2024-03-26 07:05:48.797546 +00:00,2024-06-13 09:34:16.403538 +00:00,,,4,1,,21,,сквер,сквер,,,43.30618005454603,76.8415243835284
13,641537,"ул.Таутаган, 57",151,,,,,,,,0101000020E6100000E30DDEB1FA3353404F4A307BA1964540,,Не требуется ремонт,2024-03-26 07:05:48.797546 +00:00,2024-06-13 09:34:16.403538 +00:00,,,4,7,,21,,Сквер Тастыбулак,Сквер Тастыбулак,,,43.17680301530765,76.81217619595513
14,641712,"ул.Калмаржын, 41",,,,,,,,,0101000020E6100000C6C59FB0914053406014328B99AB4540,,Не требуется ремонт,2024-03-26 07:05:48.797546 +00:00,2024-06-13 09:34:16.403538 +00:00,,,4,8,,21,,сквер Славы Аэропорта,сквер Славы Аэропорта,,,43.3406232828645,77.00889220812596
15,641697,"ул.Центральная, 68",167,,,,,,,,0101000020E61000005824FD0B473653406249C34C08A94540,,Не требуется ремонт,2024-03-26 07:05:48.797546 +00:00,2024-06-13 09:34:16.403538 +00:00,,,4,1,,21,,сквер,сквер,,,43.32056579146844,76.84808635445495
16,641698,"ул.Шынкожа батыра, 2/2",167,,,,,,,,0101000020E6100000086D88CEC53653407A17F9AF43A84540,,,2024-03-26 07:05:48.797546 +00:00,2024-06-13 09:34:16.403538 +00:00,,,4,1,,21,,Парк «Халык»,Парк «Халык»,,,43.31456565535241,76.85582316706507
17,641586,"ул.Шевченко, 84",,,,,,,,,0101000020E610000084FDEF171F3C534056F313D9359F4540,,Не требуется ремонт,2024-03-26 07:05:48.797546 +00:00,2024-06-13 09:34:16.403538 +00:00,,,4,2,,21,,бульвар Чайковского ,бульвар Чайковского ,,,43.24383080934665,76.93939779697945
18,641565,"мкр.Кокжиек, 52",104,,,,,,,,0101000020E610000022AF0C1F213B53407419823D8CAD4540,,Не требуется ремонт,2024-03-26 07:05:48.797546 +00:00,2024-06-13 09:34:16.403538 +00:00,,,4,5,,21,,Сквер Кокжиек,Сквер Кокжиек,,,43.35584229328643,76.9238965629452
19,641677,"мкр.Хан-Танири, 20 А",172,,,,,,,,0101000020E6100000BA1156EFBD385340AABE9C6FF2974540,,Требуется капитальный ремонт,2024-03-26 07:05:48.797546 +00:00,2024-06-13 09:34:16.403538 +00:00,,,4,4,,21,,Парк Первого Президента РК,Парк Первого Президента РК,,,43.18708605912737,76.88659270672989
20,641512,"мкр.Хан-Танири, 42 А",172,,,,,,,,0101000020E6100000E44000A31239534087EF556539964540,,Требуется текущий ремонт,2024-03-26 07:05:48.797546 +00:00,2024-06-13 09:34:16.403538 +00:00,,,4,4,,21,,Сквер по ул. Дулати,Сквер по ул. Дулати,,,43.17362658210828,76.89176249527696
21,641651,"пр.Достык, 160",,,,,,,,,0101000020E61000006E8DD67E593D53404DD1B68B089E4540,,Не требуется ремонт,2024-03-26 07:05:48.797546 +00:00,2024-06-13 09:34:16.403538 +00:00,,,4,6,,21,,Зеленая зона на пересечении пр.Достык и ул.Жолдасбекова (восток),Зеленая зона на пересечении пр.Достык и ул.Жолдасбекова (восток),,,43.23463579584732,76.95858736946477
22,641663,"ул.Ибрагимова, 79",41,,,,,,,,0101000020E61000002D04EBC20F4953401D5DE36C71AD4540,,Требуется текущий ремонт,2024-03-26 07:05:48.797546 +00:00,2024-06-13 09:34:16.403538 +00:00,,,4,6,,21,,сквер.пос.Алатау,сквер.пос.Алатау,,,43.35502396680588,77.14158699942409
23,641709,"ул.Бурундайская, 183/4",,,,,,,,,0101000020E610000048FAB73C963B53405EAA6170B1AA4540,,Требуется текущий ремонт,2024-03-26 07:05:48.797546 +00:00,2024-06-13 09:34:16.403538 +00:00,,,4,5,,21,,Сквер Бурандайская,Сквер Бурандайская,,,43.333540008247596,76.9310447498948
24,641534,"ул.Капчагайская, 1",176,,,,,,,,0101000020E610000038B69186B7385340F4234DDD57A34540,,Не требуется ремонт,2024-03-26 07:05:48.797546 +00:00,2024-06-13 09:34:16.403538 +00:00,,,4,1,,21,,сквер,сквер,,,43.27611891047118,76.88620151738803
25,641550,"мкр.Шугыла, 340/4 корпус 2",179,,,,,,,,0101000020E610000033D28008A5325340954EB6E8709A4540,,Не требуется ремонт,2024-03-26 07:05:48.797546 +00:00,2024-06-13 09:34:16.403538 +00:00,,,4,7,,21,,Сквер мкр. Шугыла 347/1,Сквер мкр. Шугыла 347/1,,,43.20657071019847,76.79132282810387
26,641540,"мкр.Шугыла, 347",179,,,,,,,,0101000020E6100000474F9E838F325340D9F948214C9A4540,,Не требуется ремонт,2024-03-26 07:05:48.797546 +00:00,2024-06-13 09:34:16.403538 +00:00,,,4,7,,21,,Сквер территории административного комплекса,Сквер территории административного комплекса,,,43.20544830382614,76.79000940761499
27,641602,"ул.Байзакова, 277",,,,,,,,,0101000020E61000007F896955753A534096ED6CAB0E9F4540,,Требуется текущий ремонт,2024-03-26 07:05:48.797546 +00:00,2024-06-13 09:34:16.403538 +00:00,,,4,2,,21,,сквер у Биокомбината,сквер у Биокомбината,,,43.24263518160585,76.91341147714955
28,641581,"пр.Абылай хана, 104/63",,,,,,,,,0101000020E61000001B964CED3D3C5340EA1CA3D0D5A04540,,Не требуется ремонт,2024-03-26 07:05:48.797546 +00:00,2024-06-13 09:34:16.403538 +00:00,,,4,2,,21,,Зеленая зона по пр. Абылай хана ,Зеленая зона по пр. Абылай хана ,,,43.256525115628236,76.9412797210611
29,641600,"пр.Абылай хана, 79/71",,,,,,,,,0101000020E6100000D8AA27B6333C5340E630660D1FA14540,,Не требуется ремонт,2024-03-26 07:05:48.797546 +00:00,2024-06-13 09:34:16.403538 +00:00,,,4,2,,21,,сквер у п. Луганскому ,сквер у п. Луганскому ,,,43.258760142229036,76.94065622209325
30,641567,"ул.Шашкина, 9 В",,,,,,,,,0101000020E6100000F54ABB2B673B53400AB0D10A9E9C4540,,Требуется текущий ремонт,2024-03-26 07:05:48.797546 +00:00,2024-06-13 09:34:16.403538 +00:00,,,4,4,,21,,Набережная р. Большая Алматинка,Набережная р. Большая Алматинка,,,43.22357306708007,76.92817204752266
31,641509,"пр.Гагарина, 124",,,,,,,,,0101000020E6100000F47487CC6A39534082BC46058A9E4540,,Не требуется ремонт,2024-03-26 07:05:48.797546 +00:00,2024-06-13 09:34:16.403538 +00:00,,,4,4,,21,,Сквер у станции метро «Алатау»,Сквер у станции метро «Алатау»,,,43.23858705476688,76.89714349010666
32,641649,"ул.Калдаякова, 103",,,,,,,,,0101000020E61000007DAB0C99683D53406B40F058C09F4540,,Не требуется ремонт,2024-03-26 07:05:48.797546 +00:00,2024-06-13 09:34:16.403538 +00:00,,,4,6,,21,,западный берег р. М. Алматинка (между ул. Кабанбай батыра и Курмангазы),западный берег р. М. Алматинка (между ул. Кабанбай батыра и Курмангазы),,,43.248057477293365,76.95950914609234
33,641625,"ул.Жубанова, 5",,,,,,,,,0101000020E61000009BD0F6D8E3365340A0F57636329E4540,,Не требуется ремонт,2024-03-26 07:05:48.797546 +00:00,2024-06-13 09:34:16.403538 +00:00,,,4,3,,21,,сквер по ул. Жубанова (север),сквер по ул. Жубанова (север),,,43.23590737160271,76.85765670874609
34,641686,"пр.Абая, 20/22",,,,,,,,,0101000020E6100000020011FE413C5340615B2B61B29E4540,,Требуется текущий ремонт,2024-03-26 07:05:48.797546 +00:00,2024-06-13 09:34:16.403538 +00:00,,,4,4,,21,,Бульвар по ул. Желтоксан,Бульвар по ул. Желтоксан,,,43.23981871239699,76.94152785930785
35,641670,"ул.Пушкина, 102",,,,,,,,,0101000020E6100000403FDA02153D53408D61B3C9879F4540,,Не требуется ремонт,2024-03-26 07:05:48.797546 +00:00,2024-06-13 09:34:16.403538 +00:00,,,4,6,,21,,сквер. У пам. Пушкина ,сквер. У пам. Пушкина ,,,43.24633141764489,76.95440741837683
36,641588,"ул.Айтиева, 9",,,,,,,,,0101000020E6100000E2CA40EECD395340593F121090A04540,,Не требуется ремонт,2024-03-26 07:05:48.797546 +00:00,2024-06-13 09:34:16.403538 +00:00,,,4,2,,21,,"сквер ""Аро ","сквер ""Аро ",,,43.254396447095765,76.9031940109958
37,641515,"ул.Тимирязева, 42/25",,,,,,,,,0101000020E6100000D632EDA6113A53404539C357559C4540,,Требуется капитальный ремонт,2024-03-26 07:05:48.797546 +00:00,2024-06-13 09:34:16.403538 +00:00,,,4,4,,21,,Парк Атакент,Парк Атакент,,,43.22135445625694,76.90732739604877
38,641675,"ул.Желтоқсан, 189",,,,,,,,,0101000020E6100000456C50A07C3C53405E93FEDDFE9D4540,,Не требуется ремонт,2024-03-26 07:05:48.797546 +00:00,2024-06-13 09:34:16.403538 +00:00,,,4,4,,21,,Сквер возле здания «Фонда Первого Президента»,Сквер возле здания «Фонда Первого Президента»,,,43.23434042864277,76.94510658124734
39,641668,"пр.Достык, 42 А",,,,,,,,,0101000020E6100000CDA0736E3E3D5340675731FED89F4540,,Требуется текущий ремонт,2024-03-26 07:05:48.797546 +00:00,2024-06-13 09:34:16.403538 +00:00,,,4,6,,21,,сквер.Достык-Жамбыла,сквер.Достык-Жамбыла,,,43.24880959901093,76.95693551341829
40,641696,"ул.Омарова Ильяса, 85",,,,,,,,,0101000020E6100000FDADED45393B53405E57886839A74540,,Не требуется ремонт,2024-03-26 07:05:48.797546 +00:00,2024-06-13 09:34:16.403538 +00:00,,,4,5,,21,,Сквер по ул. Омарова,Сквер по ул. Омарова,,,43.30643946320809,76.92537067614462
41,641579,"пр.Гагарина, 81",,,,,,,,,0101000020E61000008926BB8833395340BADB20AD5B9F4540,,Не требуется ремонт,2024-03-26 07:05:48.797546 +00:00,2024-06-13 09:34:16.403538 +00:00,,,4,2,,21,,бульвар Гагарина ,бульвар Гагарина ,,,43.24498523811731,76.89377039219302
42,641560,"ул.Ахтанова, 44",,,,,,,,,0101000020E61000000BB143F0423C534056A4D89C0BA44540,,Не требуется ремонт,2024-03-26 07:05:48.797546 +00:00,2024-06-13 09:34:16.403538 +00:00,,,4,5,,21,,Сквер Ахтанова,Сквер Ахтанова,,,43.28160439089031,76.94158560381418
43,641618,"ул.Кабдолова, 22 А",,,,,,,,,0101000020E6100000B9B6AC6473365340F0E42453499E4540,,Требуется капитальный ремонт,2024-03-26 07:05:48.797546 +00:00,2024-06-13 09:34:16.403538 +00:00,,,4,3,,21,,сквер по ул. Маргулана (юг),сквер по ул. Маргулана (юг),,,43.2366126947544,76.85079304567888
44,641508,"мкр.4, 26",13,,,,,,,,0101000020E6100000CA111552D63653400F10A377249D4540,,Не требуется ремонт,2024-03-26 07:05:48.797546 +00:00,2024-06-13 09:34:16.403538 +00:00,,,4,3,,21,,сквер за кинотеатром Сары-Арка,сквер за кинотеатром Сары-Арка,,,43.22767539464996,76.85683109338348
45,641544,"ул.Молдагалиева, 36",,,,,,,,,0101000020E6100000DDF14AC06F3C53407D0A737AC1AA4540,,Не требуется ремонт,2024-03-26 07:05:48.797546 +00:00,2024-06-13 09:34:16.403538 +00:00,,,4,8,,21,,сквер у «Дома детского творчества» ,сквер у «Дома детского творчества» ,,,43.334029489681576,76.9443207485087
46,641702,"ул.Ратушного, 88",,,,,,,,,0101000020E610000092DC4DD2853A5340CADCB701A3A54540,,Требуется текущий ремонт,2024-03-26 07:05:48.797546 +00:00,2024-06-13 09:34:16.403538 +00:00,,,4,5,,21,,Сквер по ул. Ратушного,Сквер по ул. Ратушного,,,43.29403707006129,76.91441781619713
47,641660,"ул.Полетаева, 63",,,,,,,,,0101000020E610000075152263633E5340F27D1E3F66A44540,,Не требуется ремонт,2024-03-26 07:05:48.797546 +00:00,2024-06-13 09:34:16.403538 +00:00,,,4,6,,21,,сквер. Менделеева,сквер. Менделеева,,,43.28437031735292,76.97481611565111
48,641528,"ул.Аркалык, 23/3",105,,,,,,,,0101000020E6100000AADD88AE9E355340341414105DA84540,,Не требуется ремонт,2024-03-26 07:05:48.797546 +00:00,2024-06-13 09:34:16.403538 +00:00,,,4,1,,21,,сквер,сквер,,,43.31534005146423,76.83781016698654
49,641667,"ул.Жамбыла, 13",,,,,,,,,0101000020E61000006E019396243D534039128581D39F4540,,Не требуется ремонт,2024-03-26 07:05:48.797546 +00:00,2024-06-13 09:34:16.403538 +00:00,,,4,6,,21,,сквер. Жамбыла ,сквер. Жамбыла ,,,43.248642148948825,76.95535816532148
50,641672,"ул.Тулебаева, 128",,,,,,,,,0101000020E61000006B920846C63C53408B9CDD2461A04540,,Требуется текущий ремонт,2024-03-26 07:05:48.797546 +00:00,2024-06-13 09:34:16.403538 +00:00,,,4,6,,21,,сквер. Кунаева ,сквер. Кунаева ,,,43.25296459980844,76.94960165822128
51,641637,"ул.Карасай батыра, 48",,,,,,,,,0101000020E6100000FEB9C271F83C53401D1C868F3FA04540,,Требуется текущий ремонт,2024-03-26 07:05:48.797546 +00:00,2024-06-13 09:34:16.403538 +00:00,,,4,6,,21,,бульвар по ул.Карасай батыра,бульвар по ул.Карасай батыра,,,43.25193971680003,76.95266384140265
52,641658,"ул.Зенкова, 21",,,,,,,,,0101000020E6100000BC9129CD3F3D5340550001A39CA04540,,Требуется текущий ремонт,2024-03-26 07:05:48.797546 +00:00,2024-06-13 09:34:16.403538 +00:00,,,4,6,,21,,благоустроенный участок по ул.Зенкова от ул. Богенбай батыра до ул. Толе би,благоустроенный участок по ул.Зенкова от ул. Богенбай батыра до ул. Толе би,,,43.25478017376796,76.95701912936687
53,641531,"ул.Баганалы Орда, 33/3",98,,,,,,,,0101000020E610000013E215E0383A53401CCD168360AB4540,,Не требуется ремонт,2024-03-26 07:05:48.797546 +00:00,2024-06-13 09:34:16.403538 +00:00,,,4,1,,21,,сквер,сквер,,,43.33888281453457,76.90972139489195
54,641591,"ул.Байзакова, 2 А",,,,,,,,,0101000020E6100000FB1F2E909C3A53405DB78119A6A04540,,Требуется капитальный ремонт,2024-03-26 07:05:48.797546 +00:00,2024-06-13 09:34:16.403538 +00:00,,,4,2,,21,,Набержная зона река «Есентай»,Набержная зона река «Есентай»,,,43.25506895860483,76.91580585960757
55,641681,"пр.Аль-Фараби, 71/19",,,,,,,,,0101000020E610000042ACF30F943A5340C4EE3F46109C4540,,,2024-03-26 07:05:48.797546 +00:00,2024-06-13 09:34:16.403538 +00:00,,,4,4,,21,,Главный Ботанический Сад,Главный Ботанический Сад,,,43.21924665567124,76.91528700634174
56,641556,"ул.Чехова, 17 В",,,,,,,,,0101000020E61000000567D85C803C5340422F9BF6FAAA4540,,Не требуется ремонт,2024-03-26 07:05:48.797546 +00:00,2024-06-13 09:34:16.403538 +00:00,,,4,8,,21,,сквер «им. Ленина»,сквер «им. Ленина»,,,43.33578379227994,76.94533463604974
57,641583,"ул.Байсеитовой, 1",,,,,,,,,0101000020E61000005E087952663C5340931581ED0CA04540,,Не требуется ремонт,2024-03-26 07:05:48.797546 +00:00,2024-06-13 09:34:16.403538 +00:00,,,4,2,,21,,бульвар Байсеитова ,бульвар Байсеитова ,,,43.25039452364867,76.94374524898146
58,641687,"ул.Жарокова, 269",,,,,,,,,0101000020E610000014B2A1E29F39534031D46DCB749B4540,,Требуется текущий ремонт,2024-03-26 07:05:48.797546 +00:00,2024-06-13 09:34:16.403538 +00:00,,,4,4,,21,,Бульвар по ул. Байкадамова,Бульвар по ул. Байкадамова,,,43.21450178969133,76.9003836230334
59,641704,"ул.Жангелдина, 191/12",,,,,,,,,0101000020E610000082CE8D311B3D5340415C89CF72A54540,,Не требуется ремонт,2024-03-26 07:05:48.797546 +00:00,2024-06-13 09:34:16.403538 +00:00,,,4,5,,21,,Сквер по ул. Жангельдина,Сквер по ул. Жангельдина,,,43.29256624419259,76.95478476379688
60,641566,"ул.Казыбаева, 262",,,,,,,,,0101000020E6100000ADBFC736883A5340D9CAADCF47A64540,,Требуется текущий ремонт,2024-03-26 07:05:48.797546 +00:00,2024-06-13 09:34:16.403538 +00:00,,,4,5,,21,,Сквер Серикова,Сквер Серикова,,,43.29906650529819,76.91456384188378
61,641598,"ул.Карасай батыра, 68",,,,,,,,,0101000020E6100000B824DC94E63B53403F48C88116A04540,,Не требуется ремонт,2024-03-26 07:05:48.797546 +00:00,2024-06-13 09:34:16.403538 +00:00,,,4,2,,21,,зеленая зона по ул. Карасай батыра,зеленая зона по ул. Карасай батыра,,,43.250686857980774,76.93594857691176
62,641657,"ул.Кармысова, 84",,,,,,,,,0101000020E6100000398334C2633D53402E839B3C4F9F4540,,Не требуется ремонт,2024-03-26 07:05:48.797546 +00:00,2024-06-13 09:34:16.403538 +00:00,,,4,6,,21,,сквер. Дружбы ,сквер. Дружбы ,,,43.24460561364536,76.95921378257925
63,641604,"ул.Маметовой, 47/51",,,,,,,,,0101000020E61000001D5548421C3C53400B46F25D0BA24540,,Требуется текущий ремонт,2024-03-26 07:05:48.797546 +00:00,2024-06-13 09:34:16.403538 +00:00,,,4,2,,21,,сквер им. А. Иманова ,сквер им. А. Иманова ,,,43.26597189264074,76.93922478736609
64,641631,"ул.Сахариева, 79 А",,,,,,,,,0101000020E6100000665A4025703E5340679917ED979D4540,,,2024-03-26 07:05:48.797546 +00:00,2024-06-13 09:34:16.403538 +00:00,,,4,6,,21,,Кок-Тобе,Кок-Тобе,,,43.231198917887745,76.97559481892094
65,641652,"пр.Абая, 23",,,,,,,,,0101000020E6100000EA8A8C9AEB3C5340EE41D41C099F4540,,Не требуется ремонт,2024-03-26 07:05:48.797546 +00:00,2024-06-13 09:34:16.403538 +00:00,,,4,6,,21,,Прилегающая территория станции метро «Абай»,Прилегающая территория станции метро «Абай»,,,43.24246559490335,76.95188010907046
66,641659,"ул.Курмангазы, 32",,,,,,,,,0101000020E6100000F00DE05CEA3C5340EC89A059799F4540,,Требуется текущий ремонт,2024-03-26 07:05:48.797546 +00:00,2024-06-13 09:34:16.403538 +00:00,,,4,6,,21,,сквер. на Западной стороне АН РК ,сквер. на Западной стороне АН РК ,,,43.24589081133658,76.95180436973874
67,641510,"бульв.Бухар Жирау, 50",,,,,,,,,0101000020E6100000C73C6C856C3A53404FD5B3FD4C9D4540,,Не требуется ремонт,2024-03-26 07:05:48.797546 +00:00,2024-06-13 09:34:16.403538 +00:00,,,4,4,,21,,Сквер у СШ №10,Сквер у СШ №10,,,43.22891207962913,76.91287360734997
68,641653,"ул.Макатаева, 52",,,,,,,,,0101000020E6100000C49EB9AEF83C53404C22915BDCA14540,,Не требуется ремонт,2024-03-26 07:05:48.797546 +00:00,2024-06-13 09:34:16.403538 +00:00,,,4,6,,21,,"Зеленая зона по ул.Макатаева от Кунаева до Пушкина (север), от Пушкина до Зенкова обе стороны","Зеленая зона по ул.Макатаева от Кунаева до Пушкина (север), от Пушкина до Зенкова обе стороны",,,43.26453728281612,76.95267837645503
69,641551,"ул.Жуалы, 37",179,,,,,,,,0101000020E6100000860DD9D23F335340892281D4079E4540,,Не требуется ремонт,2024-03-26 07:05:48.797546 +00:00,2024-06-13 09:34:16.403538 +00:00,,,4,7,,21,,Зеленая зона на пр. Райымбека,Зеленая зона на пр. Райымбека,,,43.234613955549385,76.80077048489156
70,641514,"ул.Байтурсынулы, 125",,,,,,,,,0101000020E6100000B36F1119743B5340AC410A2B429E4540,,Требуется текущий ремонт,2024-03-26 07:05:48.797546 +00:00,2024-06-13 09:34:16.403538 +00:00,,,4,4,,21,,Сквер у памятника К. Сатпаева,Сквер у памятника К. Сатпаева,,,43.23639429093177,76.92896105482832
71,641585,"пр.Абая, 39-41",,,,,,,,,0101000020E6100000AF762FDD903C5340E9E392B82C9F4540,,Требуется капитальный ремонт,2024-03-26 07:05:48.797546 +00:00,2024-06-13 09:34:16.403538 +00:00,,,4,2,,21,,бульвар Панфилова ,бульвар Панфилова ,,,43.24355227634789,76.94634179720991
72,641575,"ул.Толе би, 66/2",,,,,,,,,0101000020E610000019657E55603C5340FDC133C47FA04540,,Требуется капитальный ремонт,2024-03-26 07:05:48.797546 +00:00,2024-06-13 09:34:16.403538 +00:00,,,4,2,,21,,сквер Алии и Маншук,сквер Алии и Маншук,,,43.253899121544215,76.94337975829366
73,641562,"мкр.Айнабулак, 10",24,,,,,,,,0101000020E6100000A642D2F6483A53400353273935A94540,,Не требуется ремонт,2024-03-26 07:05:48.797546 +00:00,2024-06-13 09:34:16.403538 +00:00,,,4,5,,21,,Сквер мкр.Айнабулак-1,Сквер мкр.Айнабулак-1,,,43.32193674488192,76.91070337804067
74,641682,"пр.Абая, 40",,,,,,,,,0101000020E6100000A7F7F794C73B534094264A37E49E4540,,Требуется текущий ремонт,2024-03-26 07:05:48.797546 +00:00,2024-06-13 09:34:16.403538 +00:00,,,4,4,,21,,Пешеходная зона по пр.Абая,Пешеходная зона по пр.Абая,,,43.241339598852534,76.93405651298109
75,641654,"ул.Коперника, 72 В",,,,,,,,,0101000020E6100000514672D5DB3D534028F02EBD9EA24540,,Не требуется ремонт,2024-03-26 07:05:48.797546 +00:00,2024-06-13 09:34:16.403538 +00:00,,,4,6,,21,,Набережная реки М.Алматинка,Набережная реки М.Алматинка,,,43.270469329756736,76.96654258880268
76,641711,"ул.Боткина, 6",,,,,,,,,0101000020E610000090F543036B395340FD58E4E8E8A14540,,Не требуется ремонт,2024-03-26 07:05:48.797546 +00:00,2024-06-13 09:34:16.403538 +00:00,,,4,5,,21,,Сквер Боткина,Сквер Боткина,,,43.26492034101282,76.89715654026645
77,641619,"ул.Садовникова, 184",,,,,,,,,0101000020E6100000565C56CF6837534088A465A98C9E4540,,Требуется капитальный ремонт,2024-03-26 07:05:48.797546 +00:00,2024-06-13 09:34:16.403538 +00:00,,,4,3,,21,,Западный берег озера Сайран,Западный берег озера Сайран,,,43.238667654638505,76.86577208932553
78,641536,"ул.Чимкентская, 26/22",,,,,,,,,0101000020E610000060EF60F4EA3C5340BF4EB7042EA94540,,Не требуется ремонт,2024-03-26 07:05:48.797546 +00:00,2024-06-13 09:34:16.403538 +00:00,,,4,8,,21,,Сквер Буденного,Сквер Буденного,,,43.32171687079016,76.95184049097361
79,641640,"ул.Валиханова, 115 А",,,,,,,,,0101000020E6100000B5FC3CB5F43C534058E4F2522AA04540,,Не требуется ремонт,2024-03-26 07:05:48.797546 +00:00,2024-06-13 09:34:16.403538 +00:00,,,4,6,,21,,бульвар по ул.Ч. Валиханова ,бульвар по ул.Ч. Валиханова ,,,43.25129162654838,76.95243578868651
80,641645,"ул.Орманова, 34 В",,,,,,,,,0101000020E61000004E83A8CB073E5340E5CA41A277A14540,,Не требуется ремонт,2024-03-26 07:05:48.797546 +00:00,2024-06-13 09:34:16.403538 +00:00,,,4,6,,21,,Центральный парк г.Алматы,Центральный парк г.Алматы,,,43.26146343433883,76.96922580200518
81,641513,"мкр.Аксай-4, 60",36,,,,,,,,0101000020E61000002C6124D6A135534063580524469D4540,,Требуется капитальный ремонт,2024-03-26 07:05:48.797546 +00:00,2024-06-13 09:34:16.403538 +00:00,,,4,3,,21,,сквер в мкр. Аксай-4 ,сквер в мкр. Аксай-4 ,,,43.228703024492255,76.8380027156133
82,641559,"ул.Керей-Жанибек хандар, 341 А",,,,,,,,,0101000020E6100000DDB01B605F415340ED36973A4A964540,,,2024-03-26 07:05:48.797546 +00:00,2024-06-13 09:34:16.403538 +00:00,,,4,6,,21,,Парки и скверы,Парки и скверы,,,43.17414028533481,77.02144625381648
83,641661,"ул.Шухова, 28/1",,,,,,,,,0101000020E610000009C05E97CC3E53400A6DF7BC1BA34540,,Не требуется ремонт,2024-03-26 07:05:48.797546 +00:00,2024-06-13 09:34:16.403538 +00:00,,,4,6,,21,,сквер. на углу ул. Шухова-Оренбургская,сквер. на углу ул. Шухова-Оренбургская,,,43.27428400117249,76.98123726132339
84,641541,"ул.Акселеу Сейдимбек, 301",118,,,,,,,,0101000020E6100000C83DBBDBE73653409513A343C2984540,,,2024-03-26 07:05:48.797546 +00:00,2024-06-13 09:34:16.403538 +00:00,,,4,7,,21,,Парк «Alibi Flex Park»,Парк «Alibi Flex Park»,,,43.19342847311706,76.85790150914465
85,641517,"пл.Республики, 2",,,,,,,,,0101000020E6100000E4DC86B4823C5340053D3938529E4540,,Требуется текущий ремонт,2024-03-26 07:05:48.797546 +00:00,2024-06-13 09:34:16.403538 +00:00,,,4,4,,21,,Сквер у здания Акимата г. Алматы,Сквер у здания Акимата г. Алматы,,,43.23688414378015,76.94547761125756
86,641639,"пр.Достык, 533",,,,,,,,,0101000020E61000006EA46E698C3E53404BF5B0DC0B9A4540,,Не требуется ремонт,2024-03-26 07:05:48.797546 +00:00,2024-06-13 09:34:16.403538 +00:00,,,4,6,,21,,Зеленая зона по пр. Достык севернее ул.Оспанова,Зеленая зона по пр. Достык севернее ул.Оспанова,,,43.20348700180565,76.97732005886948
87,641683,"ул.Серикова, 49",,,,,,,,,0101000020E610000003E4FA9A023B5340E66F669EA9A64540,,Не требуется ремонт,2024-03-26 07:05:48.797546 +00:00,2024-06-13 09:34:16.403538 +00:00,,,4,5,,21,,Сквер в мкр. Кулагер,Сквер в мкр. Кулагер,,,43.30205135347187,76.92203402043383
88,641608,"ул.Наурызбай батыра, 115",,,,,,,,,0101000020E6100000C5B60D6EFD3B5340658BFB1B009F4540,,Требуется текущий ремонт,2024-03-26 07:05:48.797546 +00:00,2024-06-13 09:34:16.403538 +00:00,,,4,2,,21,,сквер Наурызбай батыра –Абая ,сквер Наурызбай батыра –Абая ,,,43.24219083578536,76.93734313334706
89,641573,"ул.Панфилова, 80",,,,,,,,,0101000020E6100000E3F5B415773C534021467028DBA04540,,Требуется текущий ремонт,2024-03-26 07:05:48.797546 +00:00,2024-06-13 09:34:16.403538 +00:00,,,4,2,,21,,зеленая зона по ул. Панфилова ,зеленая зона по ул. Панфилова ,,,43.256688170262585,76.9447683589165
90,641622,"мкр.10, 15 Б",6,,,,,,,,0101000020E61000000975E4438A3753400B48632FF79B4540,,Не требуется ремонт,2024-03-26 07:05:48.797546 +00:00,2024-06-13 09:34:16.403538 +00:00,,,4,3,,21,,пешеходная зона,пешеходная зона,,,43.218480990865,76.86781403837462
91,641624,"мкр.12, 16",9,,,,,,,,0101000020E61000003857E04EAB365340C9C06169139C4540,,Не требуется ремонт,2024-03-26 07:05:48.797546 +00:00,2024-06-13 09:34:16.403538 +00:00,,,4,3,,21,,сквер в мкр. 12,сквер в мкр. 12,,,43.2193423964796,76.85420581730148
92,641518,"мкр.12, 22/2",9,,,,,,,,0101000020E6100000F2D6CD838E375340D36BAC8A5A9C4540,,Требуется капитальный ремонт,2024-03-26 07:05:48.797546 +00:00,2024-06-13 09:34:16.403538 +00:00,,,4,3,,21,,сквер у театра им. Н.Сац,сквер у театра им. Н.Сац,,,43.22151311320308,76.86807341672446
93,641522,"мкр.3, 36 А",12,,,,,,,,0101000020E610000039AC0ACCBB3653402240D5F8F09C4540,,,2024-03-26 07:05:48.797546 +00:00,2024-06-13 09:34:16.403538 +00:00,,,4,3,,21,,парк «Family»,парк «Family»,,,43.22610388195632,76.85521222154865
94,641616,"мкр.7, 35",16,,,,,,,,0101000020E6100000581DDE7726375340202B79A3129D4540,,Требуется капитальный ремонт,2024-03-26 07:05:48.797546 +00:00,2024-06-13 09:34:16.403538 +00:00,,,4,3,,21,,сквер по пр. Алтынсарина (запад),сквер по пр. Алтынсарина (запад),,,43.22713130394391,76.86172291460878
95,641623,"мкр.8, 87 А",17,,,,,,,,0101000020E61000003E2AF7E4A1375340FA9D882FF69C4540,,Требуется текущий ремонт,2024-03-26 07:05:48.797546 +00:00,2024-06-13 09:34:16.403538 +00:00,,,4,3,,21,,пешеходная зона,пешеходная зона,,,43.22626299067265,76.86925624978264
96,641695,"ул.Казакова, 12 Д",,,,,,,,,0101000020E6100000C688880B563953401040143531A24540,,Не требуется ремонт,2024-03-26 07:05:48.797546 +00:00,2024-06-13 09:34:16.403538 +00:00,,,4,5,,21,,Сквер по ул. Казакова ,Сквер по ул. Казакова ,,,43.267126688850226,76.89587677319932
97,641520,"мкр.Аксай-2, 17",32,,,,,,,,0101000020E6100000403960A065355340560D286D5B9E4540,,Не требуется ремонт,2024-03-26 07:05:48.797546 +00:00,2024-06-13 09:34:16.403538 +00:00,,,4,3,,21,,сквер в мкр. Аксай-2 ,сквер в мкр. Аксай-2 ,,,43.237165112072645,76.83432778736915
98,641710,"мкр.Айнабулак, 53",24,,,,,,,,0101000020E610000042B6F6596F3A5340925F03C180A84540,,Не требуется ремонт,2024-03-26 07:05:48.797546 +00:00,2024-06-13 09:34:16.403538 +00:00,,,4,5,,21,,Сквер мкр.Айнабулак-2,Сквер мкр.Айнабулак-2,,,43.31642925896371,76.9130463513657
99,641635,"ул.Пушкина, 3/2",,,,,,,,,0101000020E6100000FB297ABAEF3C53400B67C17E78A24540,,Не требуется ремонт,2024-03-26 07:05:48.797546 +00:00,2024-06-13 09:34:16.403538 +00:00,,,4,6,,21,,Набережная реки Есентай,Набережная реки Есентай,,,43.269302219805546,76.95213186197354
100,641543,"ул.Нурсая, 56",,,,,,,,,0101000020E6100000A7457A4C563D5340C2E24075DAAC4540,,Требуется текущий ремонт,2024-03-26 07:05:48.797546 +00:00,2024-06-13 09:34:16.403538 +00:00,,,4,8,,21,,сквер «Афганцев»,сквер «Афганцев»,,,43.35041680973292,76.95839225712426
101,641568,"мкр.Айнабулак, 58",24,,,,,,,,0101000020E610000043866DFC9C3A534068468A1DB5A84540,,Не требуется ремонт,2024-03-26 07:05:48.797546 +00:00,2024-06-13 09:34:16.403538 +00:00,,,4,5,,21,,Пешеходная зона по ул. Палладина (Ян Гейл),Пешеходная зона по ул. Палладина (Ян Гейл),,,43.31802720309935,76.91583166785954
102,641595,"ул.Дуйсенова Есена, 100/62",,,,,,,,,0101000020E610000083502CD33A3853403ABD000069A04540,,Не требуется ремонт,2024-03-26 07:05:48.797546 +00:00,2024-06-13 09:34:16.403538 +00:00,,,4,2,,21,,зеленая зона по ул. Дуйсенова,зеленая зона по ул. Дуйсенова,,,43.253204346047326,76.87859038665378
103,641700,"мкр.Айнабулак, 29",24,,,,,,,,0101000020E6100000D068F2744D3A534009667555E4A84540,,Не требуется ремонт,2024-03-26 07:05:48.797546 +00:00,2024-06-13 09:34:16.403538 +00:00,,,4,5,,21,,Сквер между мкр. Айнабулак – 1 и 2,Сквер между мкр. Айнабулак – 1 и 2,,,43.31946819527008,76.9109775893478
104,641563,"мкр.Айнабулак, 50",24,,,,,,,,0101000020E6100000AFF50122783A5340EE70B44D94A84540,,Не требуется ремонт,2024-03-26 07:05:48.797546 +00:00,2024-06-13 09:34:16.403538 +00:00,,,4,5,,21,,Сквер мкр.Айнабулак-2,Сквер мкр.Айнабулак-2,,,43.317025864702245,76.9135823268068
105,641715,"пр.Сейфуллина, 50/2",,,,,,,,,0101000020E61000005CBEEDEF353C534030C0C1767EA94540,,Не требуется ремонт,2024-03-26 07:05:48.797546 +00:00,2024-06-13 09:34:16.403538 +00:00,,,4,8,,21,,сквер «Шугла»,сквер «Шугла»,,,43.32417187176213,76.94079206673763
106,641529,"ул.Шарипова, 75",25,,,,,,,,0101000020E61000007D1EC9611E355340DBAF61D5DDA14540,,Не требуется ремонт,2024-03-26 07:05:48.797546 +00:00,2024-06-13 09:34:16.403538 +00:00,,,4,1,,21,,сквер,сквер,,,43.26458232183332,76.82997936859643
107,641693,"ул.Сейдоллы Байтерекова, 35",25,,,,,,,,0101000020E6100000274B6B8577345340C545465335A14540,,Не требуется ремонт,2024-03-26 07:05:48.797546 +00:00,2024-06-13 09:34:16.403538 +00:00,,,4,1,,21,,сквер,сквер,,,43.25943985873486,76.81979499318969
108,641552,"ул.Даулеткерея, 115",26,,,,,,,,0101000020E61000007D6ADCFCC0335340CDBC3396AF974540,,Не требуется ремонт,2024-03-26 07:05:48.797546 +00:00,2024-06-13 09:34:16.403538 +00:00,,,4,7,,21,,Сквер Акжар,Сквер Акжар,,,43.18504598165746,76.8086540367603
109,641629,"мкр.Аксай-1, 4 Б",30,,,,,,,,0101000020E61000001453CE0CA035534056FCB3E5039F4540,,Требуется капитальный ремонт,2024-03-26 07:05:48.797546 +00:00,2024-06-13 09:34:16.403538 +00:00,,,4,3,,21,,сквер по ул. Саина (запад),сквер по ул. Саина (запад),,,43.24230643547405,76.83789367817764
110,641533,"ул.Кудиярбек Шотаманулы, 12",176,,,,,,,,0101000020E6100000FE56B938B53853409AEE418C61A54540,,Не требуется ремонт,2024-03-26 07:05:48.797546 +00:00,2024-06-13 09:34:16.403538 +00:00,,,4,1,,21,,сквер ,сквер ,,,43.29203942508066,76.88606088733283
111,641584,"ул.Жамбыла, 207",,,,,,,,,0101000020E61000001D5023F15F39534030002ADA329F4540,,Требуется капитальный ремонт,2024-03-26 07:05:48.797546 +00:00,2024-06-13 09:34:16.403538 +00:00,,,4,2,,21,,Парк им. М. Ганди ,Парк им. М. Ганди ,,,43.24373938608949,76.89648083160905
112,641688,"мкр.Орбита-2, 29",138,,,,,,,,0101000020E610000063E5D534763853409E2A05C771994540,,Требуется текущий ремонт,2024-03-26 07:05:48.797546 +00:00,2024-06-13 09:34:16.403538 +00:00,,,4,4,,21,,Пешеходная зона по ул.Биржана,Пешеходная зона по ул.Биржана,,,43.19878471138257,76.88221474540983
113,641532,"ул.Аркалык, 5/2",105,,,,,,,,0101000020E6100000888B90E5A935534009299060F8A74540,,Не требуется ремонт,2024-03-26 07:05:48.797546 +00:00,2024-06-13 09:34:16.403538 +00:00,,,4,1,,21,,сквер,сквер,,,43.312267370596665,76.83849467387893
114,641592,"ул.Айвазовского, 119",,,,,,,,,0101000020E6100000A8838D82B8395340C381D26EDC9E4540,,Не требуется ремонт,2024-03-26 07:05:48.797546 +00:00,2024-06-13 09:34:16.403538 +00:00,,,4,2,,21,,Зеленные зоны станции метрополитена ,Зеленные зоны станции метрополитена ,,,43.241102078234256,76.90188659496073
115,641666,"ул.Курмангазы, 1/96",,,,,,,,,0101000020E6100000F8EB6D195F3D53403DD569DD719F4540,,Не требуется ремонт,2024-03-26 07:05:48.797546 +00:00,2024-06-13 09:34:16.403538 +00:00,,,4,6,,21,,сквер. Курмангазы уг. ул. Зенкова ,сквер. Курмангазы уг. ул. Зенкова ,,,43.24566238086343,76.95892940268084
116,641706,"ул.Гастелло, 76",,,,,,,,,0101000020E6100000859123A36D3D5340A72E471875A54540,,Требуется текущий ремонт,2024-03-26 07:05:48.797546 +00:00,2024-06-13 09:34:16.403538 +00:00,,,4,5,,21,,Сквер ОБ,Сквер ОБ,,,43.292635950810386,76.95981672738533
117,641557,"ул.Зорге, 2 Б",,,,,,,,,0101000020E610000066B4AF35BA3C5340255F535C88AB4540,,Не требуется ремонт,2024-03-26 07:05:48.797546 +00:00,2024-06-13 09:34:16.403538 +00:00,,,4,8,,21,,сквер «Привокзальный»,сквер «Привокзальный»,,,43.34009889670259,76.94886533888493
118,641689,"ул.Байсеитовой, 47/20",,,,,,,,,0101000020E6100000F4358BF97C3C53407663E9DFB49E4540,,Не требуется ремонт,2024-03-26 07:05:48.797546 +00:00,2024-06-13 09:34:16.403538 +00:00,,,4,4,,21,,Бульвар по ул. Байсеитовой,Бульвар по ул. Байсеитовой,,,43.23989485641407,76.94512785525131
119,641701,"пр.Райымбека, 115/23",,,,,,,,,0101000020E6100000ABB8CDF7723C5340CAF11F84BBA24540,,Не требуется ремонт,2024-03-26 07:05:48.797546 +00:00,2024-06-13 09:34:16.403538 +00:00,,,4,5,,21,,Сквер по пр. Назарбаева (метро),Сквер по пр. Назарбаева (метро),,,43.27134753761091,76.94451708879448
120,641606,"ул.Мауленова, 96/77",,,,,,,,,0101000020E61000004E094B0AE73B534091303CD1FB9F4540,,Требуется текущий ремонт,2024-03-26 07:05:48.797546 +00:00,2024-06-13 09:34:16.403538 +00:00,,,4,2,,21,,сквер «Сосновый» ,сквер «Сосновый» ,,,43.24987235487891,76.93597657516258
121,641671,"пр.Достык, 85",,,,,,,,,0101000020E610000005539CC54C3D5340125BD5341E9F4540,,Не требуется ремонт,2024-03-26 07:05:48.797546 +00:00,2024-06-13 09:34:16.403538 +00:00,,,4,6,,21,,сквер. Абая ,сквер. Абая ,,,43.24310932557832,76.95781078592343
122,641574,"пр.Жибек жолы, 106",,,,,,,,,0101000020E61000000C84D0E95E3C5340592D39E885A14540,,Не требуется ремонт,2024-03-26 07:05:48.797546 +00:00,2024-06-13 09:34:16.403538 +00:00,,,4,2,,21,,зеленая  зона по ул. Жибек Жолы ,зеленая  зона по ул. Жибек Жолы ,,,43.26189902107098,76.94329305041191
123,641648,"ул.Ибрагимова, 79",41,,,,,,,,0101000020E610000017A1F6BE0F49534064FB697D71AD4540,,Требуется текущий ремонт,2024-03-26 07:05:48.797546 +00:00,2024-06-13 09:34:16.403538 +00:00,,,4,6,,21,,сквер. Ардагерлер аланы (мкр.Алатау),сквер. Ардагерлер аланы (мкр.Алатау),,,43.35502593684103,77.14158605656517
124,641524,"пр.Рыскулова, 154/1",,,,,,,,,0101000020E6100000D60B17FB59375340B42EE286F3A14540,,Не требуется ремонт,2024-03-26 07:05:48.797546 +00:00,2024-06-13 09:34:16.403538 +00:00,,,4,1,,21,,аллея,аллея,,,43.26524435085358,76.86486699343308
125,641538,"ул.Аккол, 1 А",26,,,,,,,,0101000020E6100000A8B150999A32534077E97BFE2C9A4540,,,2024-03-26 07:05:48.797546 +00:00,2024-06-13 09:34:16.403538 +00:00,,,4,7,,21,,Парк «Алем парк»,Парк «Алем парк»,,,43.204498110298054,76.79068596725722
126,641555,"ул.Ержанова, 161 Б",,,,,,,,,0101000020E61000004728E3DE313C5340244A1E8412AB4540,,Требуется капитальный ремонт,2024-03-26 07:05:48.797546 +00:00,2024-06-13 09:34:16.403538 +00:00,,,4,8,,21,,Парк Сейфуллина,Парк Сейфуллина,,,43.33650256613717,76.94054386313756
127,641716,"ул.Зорге, 18",,,,,,,,,0101000020E610000082295974363D5340C98330E8B0AA4540,,Требуется текущий ремонт,2024-03-26 07:05:48.797546 +00:00,2024-06-13 09:34:16.403538 +00:00,,,4,8,,21,,сквер у «Мемориала Славы»,сквер у «Мемориала Славы»,,,43.33352377289663,76.95644863803139
128,641542,"ул.Серектас, 2",,,,,,,,,0101000020E6100000D3AB07A6BE3F5340FE2AAC306DAB4540,,Не требуется ремонт,2024-03-26 07:05:48.797546 +00:00,2024-06-13 09:34:16.403538 +00:00,,,4,8,,21,,Роща Маяк ,Роща Маяк ,,,43.33926971823347,76.99601126431598
129,641627,"мкр.Жетысу-1, 55",83,,,,,,,,0101000020E610000024F01F42F13553403EB2D65ADF9B4540,,Требуется текущий ремонт,2024-03-26 07:05:48.797546 +00:00,2024-06-13 09:34:16.403538 +00:00,,,4,3,,21,,сквер «Жетысу-3»,сквер «Жетысу-3»,,,43.21775374873367,76.8428502380271
130,641633,"ул.Береговая, 22",,,,,,,,,0101000020E61000002CD15E890E3D534062ABFC95BC9B4540,,Не требуется ремонт,2024-03-26 07:05:48.797546 +00:00,2024-06-13 09:34:16.403538 +00:00,,,4,6,,21,,Терренкур ,Терренкур ,,,43.21669268453003,76.95401224383812
131,641620,"ул.Токтабаева, 30",,,,,,,,,0101000020E6100000C0E7665D123853400E68FB3B219B4540,,Требуется капитальный ремонт,2024-03-26 07:05:48.797546 +00:00,2024-06-13 09:34:16.403538 +00:00,,,4,3,,21,,"бульвар ""Таугуль 1""","бульвар ""Таугуль 1""",,,43.211951730496466,76.87612090157836
132,641694,"пр.Райымбека, 519/14",45,,,,,,,,0101000020E61000009160AF068E33534059CFD8CE959E4540,,Не требуется ремонт,2024-03-26 07:05:48.797546 +00:00,2024-06-13 09:34:16.403538 +00:00,,,4,1,,21,,бульвар,бульвар,,,43.238946777214274,76.80554358603173
133,641530,"ул.Фаризы Онгарсыновой, 2",45,,,,,,,,0101000020E6100000F6BA561169335340679FFBD61DA34540,,Не требуется ремонт,2024-03-26 07:05:48.797546 +00:00,2024-06-13 09:34:16.403538 +00:00,,,4,1,,21,,сквер,сквер,,,43.27434813772452,76.803287825296
134,641621,"ул.Трудовая, 90",73,,,,,,,,0101000020E610000046E87C22743453408903B34A6F9D4540,,Не требуется ремонт,2024-03-26 07:05:48.797546 +00:00,2024-06-13 09:34:16.403538 +00:00,,,4,3,,21,,Сквер «Достык»,Сквер «Достык»,,,43.2299588560191,76.8195883006857
135,641664,"ул.Жиренше, 5",74,,,,,,,,0101000020E610000090D85DDCB63F53403C36D57760A44540,,Требуется текущий ремонт,2024-03-26 07:05:48.797546 +00:00,2024-06-13 09:34:16.403538 +00:00,,,4,6,,21,,сквер. в микрорайоне «Думан»,сквер. в микрорайоне «Думан»,,,43.28419397268996,76.99553593792575
136,641643,"ул.Каркаралы, 32",74,,,,,,,,0101000020E6100000914EA34C17405340750EC3583BA44540,,Требуется текущий ремонт,2024-03-26 07:05:48.797546 +00:00,2024-06-13 09:34:16.403538 +00:00,,,4,6,,21,,сквер. по ул. Каркаралы,сквер. по ул. Каркаралы,,,43.283061118357104,77.00142208049716
137,641642,"мкр.Думан-2, 1",76,,,,,,,,0101000020E61000002CAA11892740534012C3E895E5A44540,,Не требуется ремонт,2024-03-26 07:05:48.797546 +00:00,2024-06-13 09:34:16.403538 +00:00,,,4,6,,21,,сквер. мкр. Думан-2,сквер. мкр. Думан-2,,,43.28825639596302,77.00241305089065
138,641630,"мкр.Жетысу-2, 50",84,,,,,,,,0101000020E610000068A9FBBD41365340A3FFB9669C9C4540,,Требуется капитальный ремонт,2024-03-26 07:05:48.797546 +00:00,2024-06-13 09:34:16.403538 +00:00,,,4,3,,21,,сквер по ул. Саина (запад),сквер по ул. Саина (запад),,,43.22352298814737,76.84776258064596
139,641554,"мкр.Жулдыз-1, 19 Г",87,,,,,,,,0101000020E61000007257AEEFAD3F5340B5AB473C8BAE4540,,Требуется текущий ремонт,2024-03-26 07:05:48.797546 +00:00,2024-06-13 09:34:16.403538 +00:00,,,4,8,,21,,Аллея Жулдыз,Аллея Жулдыз,,,43.36362412929103,76.99499122643991
140,641703,"ул.Бокейханова, 506",,,,,,,,,0101000020E6100000E8766CB3CB3953409BC99C9679A44540,,Требуется капитальный ремонт,2024-03-26 07:05:48.797546 +00:00,2024-06-13 09:34:16.403538 +00:00,,,4,5,,21,,Сквер вдоль реки «Есентай»,Сквер вдоль реки «Есентай»,,,43.28496058135644,76.90305791465983
141,641539,"ул.Нурмагамбетов Нагимбек, 74",94,,,,,,,,0101000020E61000007CCE2246B934534030407BA4529C4540,,Не требуется ремонт,2024-03-26 07:05:48.797546 +00:00,2024-06-13 09:34:16.403538 +00:00,,,4,7,,21,,Пешеходная зона,Пешеходная зона,,,43.22127204912283,76.82380822562294
142,641553,"ул.Айбергенова, 2/1",94,,,,,,,,0101000020E61000006FF1DDB4CA32534093965146619D4540,,Не требуется ремонт,2024-03-26 07:05:48.797546 +00:00,2024-06-13 09:34:16.403538 +00:00,,,4,7,,21,,Сквер на Жансугурова,Сквер на Жансугурова,,,43.22953108772085,76.79362222360736
143,641546,"ул.Нурмагамбетов Нагимбек, 23",94,,,,,,,,0101000020E6100000B5C22B4B9134534081B08B14C89C4540,,Не требуется ремонт,2024-03-26 07:05:48.797546 +00:00,2024-06-13 09:34:16.403538 +00:00,,,4,7,,21,,Сквер Калакман,Сквер Калакман,,,43.22485596485877,76.8213680198049
144,641549,"мкр.Кокжиек, 22",104,,,,,,,,0101000020E61000003E48E5BDCF3A53404245A4F7DAAD4540,,Не требуется ремонт,2024-03-26 07:05:48.797546 +00:00,2024-06-13 09:34:16.403538 +00:00,,,4,5,,21,,Сквер в мкр. Кокжиек,Сквер в мкр. Кокжиек,,,43.3582448532202,76.91892955199089
145,641699,"мкр.Кокмайса, 20",106,,,,,,,,0101000020E61000008263131A94395340C4F8F5B8A5A74540,,Не требуется ремонт,2024-03-26 07:05:48.797546 +00:00,2024-06-13 09:34:16.403538 +00:00,,,4,5,,21,,Сквер в мкр. Кокмайса,Сквер в мкр. Кокмайса,,,43.30974494943942,76.89966442006519
146,641674,"мкр.Коктем-2, 19",108,,,,,,,,0101000020E6100000E8E98E2D083B534083AC52BD549D4540,,Требуется текущий ремонт,2024-03-26 07:05:48.797546 +00:00,2024-06-13 09:34:16.403538 +00:00,,,4,4,,21,,Сквер Жас Канат,Сквер Жас Канат,,,43.22914854561625,76.92237414318481
147,641692,"мкр.Коктем-3, 1",109,,,,,,,,0101000020E6100000B43D1C7DD13A5340F7C0F78DCD9D4540,,Требуется текущий ремонт,2024-03-26 07:05:48.797546 +00:00,2024-06-13 09:34:16.403538 +00:00,,,4,4,,21,,Бульвар по ул. Мусрепова,Бульвар по ул. Мусрепова,,,43.23283552739479,76.91903617628014
148,641705,"пр.Суюнбая, 17 А",,,,,,,,,0101000020E6100000E98ACE21973C5340C56437D7CAA24540,,Не требуется ремонт,2024-03-26 07:05:48.797546 +00:00,2024-06-13 09:34:16.403538 +00:00,,,4,5,,21,,"Пешеходная зона по пр. Суюнбая, пр. Райымбека (Ян Гейл)","Пешеходная зона по пр. Суюнбая, пр. Райымбека (Ян Гейл)",,,43.27181520657317,76.94672436876466
149,641526,"ул.Емцова, 9 Г",,,,,,,,,0101000020E6100000A0A427175A375340156DD065F8A04540,,Не требуется ремонт,2024-03-26 07:05:48.797546 +00:00,2024-06-13 09:34:16.403538 +00:00,,,4,1,,21,,набережная,набережная,,,43.25758049656921,76.8648736846103
150,641644,"пр.Достык, 12/24",,,,,,,,,0101000020E610000093958364003D53400773981E1FA14540,,Не требуется ремонт,2024-03-26 07:05:48.797546 +00:00,2024-06-13 09:34:16.403538 +00:00,,,4,6,,21,,Парк 28 Гвардейцев-панфиловцев,Парк 28 Гвардейцев-панфиловцев,,,43.25876219219031,76.95314896440532
151,641656,"ул.Пушкина, 26",,,,,,,,,0101000020E6100000963882DCF83C53409FAA8A8B38A24540,,Не требуется ремонт,2024-03-26 07:05:48.797546 +00:00,2024-06-13 09:34:16.403538 +00:00,,,4,6,,21,,Зеленая зона по ул.Пушкина ниже ул.Макатаева (восточная сторона),Зеленая зона по ул.Пушкина ниже ул.Макатаева (восточная сторона),,,43.26735061903786,76.9526892921152
152,641680,"пр.Абая, 48 А",,,,,,,,,0101000020E61000005364576FD03A5340BB12AF9C979E4540,,,2024-03-26 07:05:48.797546 +00:00,2024-06-13 09:34:16.403538 +00:00,,,4,4,,21,,Fantasy World  Almaty,Fantasy World  Almaty,,,43.23900183247084,76.91897185835232
153,641707,"пр.Абылай хана, 2",,,,,,,,,0101000020E610000020319385213C53407CC49BAAEDA24540,,Не требуется ремонт,2024-03-26 07:05:48.797546 +00:00,2024-06-13 09:34:16.403538 +00:00,,,4,5,,21,,сквер Вокзал-2,сквер Вокзал-2,,,43.27287800412975,76.9395460069104
154,641684,"пр.Абая, 48 А",,,,,,,,,0101000020E610000038BEA22BF93A5340D2C0EBCED69D4540,,Требуется текущий ремонт,2024-03-26 07:05:48.797546 +00:00,2024-06-13 09:34:16.403538 +00:00,,,4,4,,21,,Набережная р. Есентай,Набережная р. Есентай,,,43.23311792861354,76.92145815747142
155,641594,"пр.Райымбека, 184 Г",,,,,,,,,0101000020E610000024E38828983B5340FBAE088070A24540,,Не требуется ремонт,2024-03-26 07:05:48.797546 +00:00,2024-06-13 09:34:16.403538 +00:00,,,4,2,,21,,Зеленая зона по пр. Райымбека,Зеленая зона по пр. Райымбека,,,43.26905823158264,76.93116200797937
156,641577,"пр.Абылай хана, 74/60",,,,,,,,,0101000020E6100000917D80C8513C5340372BC8933CA14540,,Не требуется ремонт,2024-03-26 07:05:48.797546 +00:00,2024-06-13 09:34:16.403538 +00:00,,,4,2,,21,,зеленая зона по ул. Гоголя ,зеленая зона по ул. Гоголя ,,,43.25966117166393,76.94249165103817
157,641558,"ул.Тынышбаева Мухамеджана, 34",,,,,,,,,0101000020E61000001DD313342C3C53401ACABCAD86AB4540,,Не требуется ремонт,2024-03-26 07:05:48.797546 +00:00,2024-06-13 09:34:16.403538 +00:00,,,4,8,,21,,Парк  Детский ,Парк  Детский ,,,43.340047566587785,76.94019796310427
158,641571,"бульв.Бухар Жирау, 42",,,,,,,,,0101000020E61000001C019AC1E43A53405FB4889EDB9D4540,,Не требуется ремонт,2024-03-26 07:05:48.797546 +00:00,2024-06-13 09:34:16.403538 +00:00,,,4,4,,21,,Бульвар по ул. Бухар Жырау,Бульвар по ул. Бухар Жырау,,,43.23326474833515,76.92021217383848
159,641665,"пр.Н.Назарбаев, 124/2",,,,,,,,,0101000020E610000061005562A13C53409030BA1F33A04540,,Требуется текущий ремонт,2024-03-26 07:05:48.797546 +00:00,2024-06-13 09:34:16.403538 +00:00,,,4,6,,21,,сквер. по восточной стороне ул. Фурманова ,сквер. по восточной стороне ул. Фурманова ,,,43.251560178673685,76.9473501043408
160,641603,"ул.Шевченко, 196 А",,,,,,,,,0101000020E61000006D0734C024395340ABC5D6D42A9F4540,,Не требуется ремонт,2024-03-26 07:05:48.797546 +00:00,2024-06-13 09:34:16.403538 +00:00,,,4,2,,21,,сквер по ул. Жамбыла ,сквер по ул. Жамбыла ,,,43.243494610661706,76.89286809044798
161,641646,"ул.Керей-Жанибек хандар, 408",,,,,,,,,0101000020E61000005E611B0A10405340FA99393342984540,,Требуется текущий ремонт,2024-03-26 07:05:48.797546 +00:00,2024-06-13 09:34:16.403538 +00:00,,,4,6,,21,,сквер. Бутаковка вдоль ул. Бейсеуова,сквер. Бутаковка вдоль ул. Бейсеуова,,,43.18952026665279,77.00097897218572
162,641607,"ул.Чайковского, 37",,,,,,,,,0101000020E6100000C32DBE4D053C5340B21A99D1ABA14540,,Не требуется ремонт,2024-03-26 07:05:48.797546 +00:00,2024-06-13 09:34:16.403538 +00:00,,,4,2,,21,,сквер им.  М. Макатаева ,сквер им.  М. Макатаева ,,,43.26305599189563,76.93782371112961
163,641519,"мкр.6, 14",15,,,,,,,,0101000020E610000042E5A3EBB0365340BF49EE760E9C4540,,Требуется текущий ремонт,2024-03-26 07:05:48.797546 +00:00,2024-06-13 09:34:16.403538 +00:00,,,4,3,,21,,сквер в 6 мкр.,сквер в 6 мкр.,,,43.21919142375145,76.8545483685057
164,641523,"ул.Ауэзовой, 13",98,,,,,,,,0101000020E61000000252B52C123A53400766314CB2A94540,,Не требуется ремонт,2024-03-26 07:05:48.797546 +00:00,2024-06-13 09:34:16.403538 +00:00,,,4,1,,21,,пешеходная зона,пешеходная зона,,,43.325753711815246,76.90735929209771
165,641636,"ул.Бейсеуова, 30/3",129,,,,,,,,0101000020E6100000493518D4B041534096423E404B984540,,Не требуется ремонт,2024-03-26 07:05:48.797546 +00:00,2024-06-13 09:34:16.403538 +00:00,,,4,6,,21,,Набережная реки Бекенбай,Набережная реки Бекенбай,,,43.189796476746025,77.02641775478436
166,641610,"ул.Кожамкулова, 189",,,,,,,,,0101000020E61000005F4E4CBAAC3A5340A904D6F671A04540,,Не требуется ремонт,2024-03-26 07:05:48.797546 +00:00,2024-06-13 09:34:16.403538 +00:00,,,4,2,,21,,сквер на Кожамкулова ,сквер на Кожамкулова ,,,43.25347791147335,76.91679246379634
167,641580,"ул.Богенбай батыра, 180",,,,,,,,,0101000020E6100000ED01ACFA333B5340FF52DC4B38A04540,,Не требуется ремонт,2024-03-26 07:05:48.797546 +00:00,2024-06-13 09:34:16.403538 +00:00,,,4,2,,21,,бульвар Богенбай батыра ,бульвар Богенбай батыра ,,,43.25171802766817,76.92504755780801
168,641617,"ул.Жандосова, 47",,,,,,,,,0101000020E61000005A8D10B925385340367451E9F99B4540,,Требуется капитальный ремонт,2024-03-26 07:05:48.797546 +00:00,2024-06-13 09:34:16.403538 +00:00,,,4,3,,21,,сквер по ул. Жандосова (север),сквер по ул. Жандосова (север),,,43.21856419064754,76.87730242363378
169,641587,"ул.Толе би, 189",,,,,,,,,0101000020E61000000F52F1AB2E395340B8CCCCD438A04540,,Не требуется ремонт,2024-03-26 07:05:48.797546 +00:00,2024-06-13 09:34:16.403538 +00:00,,,4,2,,21,,сквер «АЗТМ» ,сквер «АЗТМ» ,,,43.25173435211167,76.8934736115118
170,641521,"мкр.12, 23",9,,,,,,,,0101000020E6100000730136AD76375340561D16C47F9C4540,,Требуется капитальный ремонт,2024-03-26 07:05:48.797546 +00:00,2024-06-13 09:34:16.403538 +00:00,,,4,3,,21,,сквер у Ауэзовского Акимата,сквер у Ауэзовского Акимата,,,43.22264910774054,76.86661844514838
171,641678,"ул.Экспериментальная база, 2 А",,,,,,,,,0101000020E61000001B13DEF0EB395340C999D1FF459B4540,,Требуется текущий ремонт,2024-03-26 07:05:48.797546 +00:00,2024-06-13 09:34:16.403538 +00:00,,,4,4,,21,,Парк Южный,Парк Южный,,,43.2130737088624,76.90502568900085
172,641685,"пр.Н.Назарбаев, 237",,,,,,,,,0101000020E61000008A15312ABC3C5340915130E53F9E4540,,Требуется текущий ремонт,2024-03-26 07:05:48.797546 +00:00,2024-06-13 09:34:16.403538 +00:00,,,4,4,,21,,Пешеходная зона по ул. Назарбаева,Пешеходная зона по ул. Назарбаева,,,43.23632492884929,76.94898466866849
173,641548,"ул.Тихова, 76 В",,,,,,,,,0101000020E61000000DBDC530603B5340818D228488A64540,,Не требуется ремонт,2024-03-26 07:05:48.797546 +00:00,2024-06-13 09:34:16.403538 +00:00,,,4,5,,21,,Парк отдыха «Гулдер»,Парк отдыха «Гулдер»,,,43.3010411423411,76.9277460032501
174,641614,"ул.Жамбыла, 48",,,,,,,,,0101000020E61000004DDB3C34863C53407C286D3CDA9F4540,,Не требуется ремонт,2024-03-26 07:05:48.797546 +00:00,2024-06-13 09:34:16.403538 +00:00,,,4,2,,21,,сквер возле театра ГАТОБ им.Абая ,сквер возле театра ГАТОБ им.Абая ,,,43.248847535419344,76.94569116538078
175,641717,"ул.Мопра, 1/1",,,,,,,,,0101000020E6100000BACA1BACC63C53405410B43B32A74540,,,2024-03-26 07:05:48.797546 +00:00,2024-06-13 09:34:16.403538 +00:00,,,4,8,,21,,Роща Баума,Роща Баума,,,43.306220496103066,76.94962599481633
176,641605,"ул.Молдагуловой, 32",,,,,,,,,0101000020E6100000464263D73A3C5340474069C709A24540,,Требуется текущий ремонт,2024-03-26 07:05:48.797546 +00:00,2024-06-13 09:34:16.403538 +00:00,,,4,2,,21,,сквер возле театра им. Г. Мусурепова ,сквер возле театра им. Г. Мусурепова ,,,43.2659234298631,76.94109139149904
177,641641,"ул.Тулебаева, 117",,,,,,,,,0101000020E6100000729A41BCBA3C53409093B1F935A04540,,Не требуется ремонт,2024-03-26 07:05:48.797546 +00:00,2024-06-13 09:34:16.403538 +00:00,,,4,6,,21,,бульвар по ул.Тулебаева ,бульвар по ул.Тулебаева ,,,43.251647197444186,76.94889742285321
178,641628,"ул.Жандосова, 166",,,,,,,,,0101000020E610000018E5582E75375340EE50F566E29A4540,,Требуется капитальный ремонт,2024-03-26 07:05:48.797546 +00:00,2024-06-13 09:34:16.403538 +00:00,,,4,3,,21,,сквер по ул. Жандосова (юг),сквер по ул. Жандосова (юг),,,43.21003424623801,76.86652716332571
179,641569,"мкр.Кулагер, 30",117,,,,,,,,0101000020E61000008A66AD34F23A5340D820FBE776A74540,,Не требуется ремонт,2024-03-26 07:05:48.797546 +00:00,2024-06-13 09:34:16.403538 +00:00,,,4,5,,21,,Пешеходная зона в мкр. Кулагер,Пешеходная зона в мкр. Кулагер,,,43.30831622850536,76.92103306707045
180,641561,"ул.Метростроевская, 32",,,,,,,,,0101000020E61000002E2E43B3CB385340E42C684AC0A14540,,Требуется текущий ремонт,2024-03-26 07:05:48.797546 +00:00,2024-06-13 09:34:16.403538 +00:00,,,4,5,,21,,Сквер Крылова,Сквер Крылова,,,43.263680744997856,76.88743287621102
181,641673,"пр.Аль-Фараби, 131",,,,,,,,,0101000020E6100000A7329A87E9385340A345113E94984540,,Требуется капитальный ремонт,2024-03-26 07:05:48.797546 +00:00,2024-06-13 09:34:16.403538 +00:00,,,4,4,,21,,Сквер «Олимпийцев Пекин-2008»,Сквер «Олимпийцев Пекин-2008»,,,43.19202400058136,76.88925352152238
182,641626,"мкр.7, 15",16,,,,,,,,0101000020E610000067933DDC3D37534079BF7BC6AC9C4540,,Не требуется ремонт,2024-03-26 07:05:48.797546 +00:00,2024-06-13 09:34:16.403538 +00:00,,,4,3,,21,,сквер,сквер,,,43.224022684501456,76.86315065396558
183,641714,"ул.Шолохова, 9",,,,,,,,,0101000020E610000068F331F2FC3C5340ABF13984CAAA4540,,Не требуется ремонт,2024-03-26 07:05:48.797546 +00:00,2024-06-13 09:34:16.403538 +00:00,,,4,8,,21,,сквер «Шапагат»,сквер «Шапагат»,,,43.334305313389756,76.95293860319146
184,641547,"ул.Серикова, 2 А",,,,,,,,,0101000020E61000004F1BCF763D3B5340A61011368FA64540,,Не требуется ремонт,2024-03-26 07:05:48.797546 +00:00,2024-06-13 09:34:16.403538 +00:00,,,4,5,,21,,Сквер у здания акимата,Сквер у здания акимата,,,43.301245458920036,76.9256264708067
185,641691,"пр.Гагарина, 133/8",,,,,,,,,0101000020E6100000A8D4C58949395340C83FDF3F089E4540,,Требуется текущий ремонт,2024-03-26 07:05:48.797546 +00:00,2024-06-13 09:34:16.403538 +00:00,,,4,4,,21,,Бульвар по ул. Гагарина,Бульвар по ул. Гагарина,,,43.234626754768726,76.89511341399577
186,641679,"ул.Шашкина, 8",,,,,,,,,0101000020E6100000E6DD21EC593B53409943C118E59C4540,,Не требуется ремонт,2024-03-26 07:05:48.797546 +00:00,2024-06-13 09:34:16.403538 +00:00,,,4,4,,21,,Парк Дружбы,Парк Дружбы,,,43.22574147640916,76.92736342723182
187,641638,"ул.Жамбыла, 26",,,,,,,,,0101000020E61000007CC44880E03C53404552D220CC9F4540,,Не требуется ремонт,2024-03-26 07:05:48.797546 +00:00,2024-06-13 09:34:16.403538 +00:00,,,4,6,,21,,бульвар по ул.Жамбыла ,бульвар по ул.Жамбыла ,,,43.24841699857328,76.95120246034816
188,641582,"ул.Туркебаева, 209",,,,,,,,,0101000020E6100000C5566CEB863A53407DC1E112BF9E4540,,Не требуется ремонт,2024-03-26 07:05:48.797546 +00:00,2024-06-13 09:34:16.403538 +00:00,,,4,2,,21,,зеленая зона по пр. Абая ,зеленая зона по пр. Абая ,,,43.24020610831483,76.91448484020209
189,641599,"пр.Н.Назарбаев, 57",,,,,,,,,0101000020E61000006CAB72988F3C53403D89D68AF2A04540,,Не требуется ремонт,2024-03-26 07:05:48.797546 +00:00,2024-06-13 09:34:16.403538 +00:00,,,4,2,,21,,зеленая зона по ул. Назарбаева ,зеленая зона по ул. Назарбаева ,,,43.25740180468936,76.94626437376218
190,641572,"ул.Тлендиева, 35 А",,,,,,,,,0101000020E6100000209EA839BD37534082615D0551A04540,,Не требуется ремонт,2024-03-26 07:05:48.797546 +00:00,2024-06-13 09:34:16.403538 +00:00,,,4,2,,21,,сквер Будан ,сквер Будан ,,,43.25247256335844,76.8709243914277
191,641516,"пр.Абая, 52",,,,,,,,,0101000020E6100000D5EC7DB4A03A53407DFDC125A69E4540,,Не требуется ремонт,2024-03-26 07:05:48.797546 +00:00,2024-06-13 09:34:16.403538 +00:00,,,4,4,,21,,Сквер у КазГосЦирка ,Сквер у КазГосЦирка ,,,43.239445419046184,76.91605865762115
192,641596,"пр.Абылай хана, 97",,,,,,,,,0101000020E61000007F6BE32F5D3C53407030BBCE9FA04540,,Не требуется ремонт,2024-03-26 07:05:48.797546 +00:00,2024-06-13 09:34:16.403538 +00:00,,,4,2,,21,,зеленая зона по ул. Толе би (от Панфилова до Абылай хана),зеленая зона по ул. Толе би (от Панфилова до Абылай хана),,,43.25487693920229,76.94318768700576
193,641593,"ул.Брусиловского, 21",,,,,,,,,0101000020E6100000CCDA52EC08385340A79F1EDE07A04540,,Не требуется ремонт,2024-03-26 07:05:48.797546 +00:00,2024-06-13 09:34:16.403538 +00:00,,,4,2,,21,,зеленая зона по ул. Толе би уг. Брусиловского,зеленая зона по ул. Толе би уг. Брусиловского,,,43.2502401017694,76.8755446251991
194,641690,"ул.Масанчи, 93",,,,,,,,,0101000020E61000000B13C820973B5340BE50CD44A59E4540,,Требуется текущий ремонт,2024-03-26 07:05:48.797546 +00:00,2024-06-13 09:34:16.403538 +00:00,,,4,4,,21,,Бульвар  по ул. Масанчи,Бульвар  по ул. Масанчи,,,43.23941860222975,76.93109912432207
195,641655,"пр.Жибек жолы, 54",,,,,,,,,0101000020E6100000C39CE740143D534071CA8905A1A14540,,Не требуется ремонт,2024-03-26 07:05:48.797546 +00:00,2024-06-13 09:34:16.403538 +00:00,,,4,6,,21,,Зеленая зона по ул.Жибек жолы от Пушкина до Зенкова (северная сторона),Зеленая зона по ул.Жибек жолы от Пушкина до Зенкова (северная сторона),,,43.26272649028841,76.95436117761987
196,641545,"ул.Шолохова, 13 А",,,,,,,,,0101000020E61000009D369E59D33C53408F34BCF4EEAA4540,,Требуется текущий ремонт,2024-03-26 07:05:48.797546 +00:00,2024-06-13 09:34:16.403538 +00:00,,,4,8,,21,,сквер «Ветеранов»,сквер «Ветеранов»,,,43.335417358300326,76.95039978456994
197,641525,"мкр.Нуркент, 5/6",133,,,,,,,,0101000020E6100000033703291734534078AE6B7653A14540,,Не требуется ремонт,2024-03-26 07:05:48.797546 +00:00,2024-06-13 09:34:16.403538 +00:00,,,4,1,,21,,бульвар,бульвар,,,43.26035957582366,76.81391358674959
198,641609,"ул.Масанчи, 44",,,,,,,,,0101000020E6100000E3B4253B713B5340E3A9F85A69A04540,,Не требуется ремонт,2024-03-26 07:05:48.797546 +00:00,2024-06-13 09:34:16.403538 +00:00,,,4,2,,21,,сквер Сиреневый ,сквер Сиреневый ,,,43.253215190332206,76.92878607446941
199,641713,"ул.Хмельницкого, 2",,,,,,,,,0101000020E61000003BD08E63813D53406C98E50244A94540,,Не требуется ремонт,2024-03-26 07:05:48.797546 +00:00,2024-06-13 09:34:16.403538 +00:00,,,4,8,,21,,сквер по ул. Б. Хмельницкого,сквер по ул. Б. Хмельницкого,,,43.32238804064477,76.96102227160092
200,641570,"ул.Тимирязева, 61/68",,,,,,,,,0101000020E610000076A65241893A534049032715F89C4540,,Не требуется ремонт,2024-03-26 07:05:48.797546 +00:00,2024-06-13 09:34:16.403538 +00:00,,,4,4,,21,,Пешеходная зона по ул.Тимирязева,Пешеходная зона по ул.Тимирязева,,,43.226320880936846,76.91462739058792
201,641576,"ул.Валиханова, 121",,,,,,,,,0101000020E6100000CAD9C592FC3C534024C40D12B09F4540,,Не требуется ремонт,2024-03-26 07:05:48.797546 +00:00,2024-06-13 09:34:16.403538 +00:00,,,4,6,,21,,сквер. Валиханова ,сквер. Валиханова ,,,43.247560745927586,76.95291585275041
202,641676,"ул.Озтюрка Мустафы, 8",,,,,,,,,0101000020E61000003F757F3C123A53406C1004CBB59D4540,,Требуется текущий ремонт,2024-03-26 07:05:48.797546 +00:00,2024-06-13 09:34:16.403538 +00:00,,,4,4,,21,,Сквер по ул. М. Оз-Тюрка,Сквер по ул. М. Оз-Тюрка,,,43.23211038301892,76.90736305663175
203,641597,"ул.Кабанбай батыра, 114",,,,,,,,,0101000020E61000004BBBCD70163C53400EA24ED7E69F4540,,Не требуется ремонт,2024-03-26 07:05:48.797546 +00:00,2024-06-13 09:34:16.403538 +00:00,,,4,2,,21,,зеленая зона по ул. Кабанбай батыра,зеленая зона по ул. Кабанбай батыра,,,43.24923220958236,76.93886966792086
204,641564,"мкр.Айнабулак, 9",24,,,,,,,,0101000020E61000003C60FA3D793A5340A211A01F31A94540,,Не требуется ремонт,2024-03-26 07:05:48.797546 +00:00,2024-06-13 09:34:16.403538 +00:00,,,4,5,,21,,Пешеходная зона ,Пешеходная зона ,,,43.32181163135398,76.91365003062032
205,641590,"ул.Толе би, 78",,,,,,,,,0101000020E61000001AB49745093C534036EAEEA684A04540,,Не требуется ремонт,2024-03-26 07:05:48.797546 +00:00,2024-06-13 09:34:16.403538 +00:00,,,4,2,,21,,сквер «Аллея Любви» ,сквер «Аллея Любви» ,,,43.25404822030798,76.93806590857312
206,641589,"ул.Розыбакиева, 57",,,,,,,,,0101000020E6100000970D423BCE385340F571AD7441A04540,,Требуется текущий ремонт,2024-03-26 07:05:48.797546 +00:00,2024-06-13 09:34:16.403538 +00:00,,,4,2,,21,,Сквер по ул. Розыбакиева уг. Толе би ,Сквер по ул. Розыбакиева уг. Толе би ,,,43.2519975516224,76.8875873704004
207,641708,"мкр.Айнабулак, 46",24,,,,,,,,0101000020E61000008BF8518B603A534012112B35B1A84540,,Не требуется ремонт,2024-03-26 07:05:48.797546 +00:00,2024-06-13 09:34:16.403538 +00:00,,,4,5,,21,,Пешеходная зона по ул. Мукатая Арбат (Ян Гейл),Пешеходная зона по ул. Мукатая Арбат (Ян Гейл),,,43.31790794947496,76.91214259152382
208,641511,"ул.Нурлы жол, 107/80",,,,,,,,,0101000020E6100000DCF8C24E883953407E0E7BF29D9E4540,,Требуется текущий ремонт,2024-03-26 07:05:48.797546 +00:00,2024-06-13 09:34:16.403538 +00:00,,,4,4,,21,,Бульвар по пр. Абая,Бульвар по пр. Абая,,,43.239195165716396,76.8989445594811
209,641632,"ул.Орманова, 56",,,,,,,,,0101000020E6100000FE6BF8407C3E53407FA4AA66C8A14540,,,2024-03-26 07:05:48.797546 +00:00,2024-06-13 09:34:16.403538 +00:00,,,4,6,,21,,Алматинский зоопарк,Алматинский зоопарк,,,43.26392825443417,76.97633384952493
210,641535,"ул.Баймагамбетова, 220/1",,,,,,,,,0101000020E6100000428954A4593E53401DF0ADD727A84540,,Не требуется ремонт,2024-03-26 07:05:48.797546 +00:00,2024-06-13 09:34:16.403538 +00:00,,,4,8,,21,,Сквер «Жас Канат»,Сквер «Жас Канат»,,,43.313715896540295,76.97422130828366
